start=new Date('2022-05-29T00:00:00.000Z').valueOf();
sats=[{"MEAN_ANOMALY":"306.4874","SEMIMAJOR_AXIS":"6925.353","OBJECT_ID":"2020-012BM","TIME_SYSTEM":"UTC","INCLINATION":"53.0546","FILE":"3469840","ARG_OF_PERICENTER":"53.6302","GP_ID":"204801939","DECAY_DATE":null,"MEAN_MOTION_DOT":"0.00001146","REV_AT_EPOCH":"12727","REF_FRAME":"TEME","RCS_SIZE":"LARGE","LAUNCH_DATE":"2020-02-17","PERIOD":"95.592","TLE_LINE1":"1 45237U 20012BM  22148.83597371  .00001146  00000-0  95864-4 0  9994","RA_OF_ASC_NODE":"85.5188","ECCENTRICITY":"0.00020270","MEAN_MOTION_DDOT":"0.0000000000000","OBJECT_NAME":"STARLINK-1270","MEAN_MOTION":"15.06398556","CENTER_NAME":"EARTH","CLASSIFICATION_TYPE":"U","NORAD_CAT_ID":"45237","BSTAR":"0.00009586400000","MEAN_ELEMENT_THEORY":"SGP4","EPOCH":"2022-05-28T20:03:48.128544","ELEMENT_SET_NO":"999","OBJECT_TYPE":"PAYLOAD","PERIAPSIS":"545.814","SITE":"AFETR","COUNTRY_CODE":"US","TLE_LINE2":"2 45237  53.0546  85.5188 0002027  53.6302 306.4874 15.06398556127270","EPHEMERIS_TYPE":"0","APOAPSIS":"548.622"},{"ELEMENT_SET_NO":"999","EPOCH":"2022-05-28T15:53:02.221728","BSTAR":"0.00073786000000","MEAN_ELEMENT_THEORY":"SGP4","NORAD_CAT_ID":"45360","CLASSIFICATION_TYPE":"U","CENTER_NAME":"EARTH","EPHEMERIS_TYPE":"0","APOAPSIS":"548.124","COUNTRY_CODE":"US","TLE_LINE2":"2 45360  53.0537 216.2970 0001372  65.9170 294.1963 15.06412866121985","SITE":"AFETR","OBJECT_TYPE":"PAYLOAD","PERIAPSIS":"546.224","PERIOD":"95.591","LAUNCH_DATE":"2020-03-18","MEAN_MOTION":"15.06412866","OBJECT_NAME":"STARLINK-1279","MEAN_MOTION_DDOT":"0.0000000000000","ECCENTRICITY":"0.00013720","RA_OF_ASC_NODE":"216.2970","TLE_LINE1":"1 45360U 20019A   22148.66183127  .00010730  00000-0  73786-3 0  9996","GP_ID":"204801201","ARG_OF_PERICENTER":"65.9170","FILE":"3469840","RCS_SIZE":"LARGE","REF_FRAME":"TEME","MEAN_MOTION_DOT":"0.00010730","REV_AT_EPOCH":"12198","DECAY_DATE":null,"MEAN_ANOMALY":"294.1963","TIME_SYSTEM":"UTC","INCLINATION":"53.0537","OBJECT_ID":"2020-019A","SEMIMAJOR_AXIS":"6925.309"},{"SEMIMAJOR_AXIS":"6925.333","OBJECT_ID":"2020-019B","INCLINATION":"53.0550","TIME_SYSTEM":"UTC","MEAN_ANOMALY":"295.7907","REV_AT_EPOCH":"12184","MEAN_MOTION_DOT":"0.00001546","DECAY_DATE":null,"RCS_SIZE":"LARGE","REF_FRAME":"TEME","ARG_OF_PERICENTER":"64.3231","FILE":"3469840","GP_ID":"204801952","TLE_LINE1":"1 45361U 20019B   22148.58349268  .00001546  00000-0  12266-3 0  9999","RA_OF_ASC_NODE":"226.6480","OBJECT_NAME":"STARLINK-1301","MEAN_MOTION_DDOT":"0.0000000000000","ECCENTRICITY":"0.00014490","MEAN_MOTION":"15.06405238","LAUNCH_DATE":"2020-03-18","PERIOD":"95.592","SITE":"AFETR","OBJECT_TYPE":"PAYLOAD","PERIAPSIS":"546.194","APOAPSIS":"548.201","EPHEMERIS_TYPE":"0","TLE_LINE2":"2 45361  53.0550 226.6480 0001449  64.3231 295.7907 15.06405238121843","COUNTRY_CODE":"US","CENTER_NAME":"EARTH","NORAD_CAT_ID":"45361","CLASSIFICATION_TYPE":"U","ELEMENT_SET_NO":"999","EPOCH":"2022-05-28T14:00:13.767552","MEAN_ELEMENT_THEORY":"SGP4","BSTAR":"0.00012266000000"},{"SITE":"AFETR","PERIAPSIS":"546.067","OBJECT_TYPE":"PAYLOAD","APOAPSIS":"548.325","EPHEMERIS_TYPE":"0","COUNTRY_CODE":"US","TLE_LINE2":"2 45362  53.0552 246.1403 0001630  61.2419 298.8733 15.06405782121579","CENTER_NAME":"EARTH","NORAD_CAT_ID":"45362","CLASSIFICATION_TYPE":"U","ELEMENT_SET_NO":"999","EPOCH":"2022-05-28T16:42:07.363584","MEAN_ELEMENT_THEORY":"SGP4","BSTAR":"0.00002693200000","TLE_LINE1":"1 45362U 20019C   22148.69591856  .00000120  00000-0  26932-4 0  9997","RA_OF_ASC_NODE":"246.1403","MEAN_MOTION_DDOT":"0.0000000000000","ECCENTRICITY":"0.00016300","OBJECT_NAME":"STARLINK-1306","MEAN_MOTION":"15.06405782","LAUNCH_DATE":"2020-03-18","PERIOD":"95.592","MEAN_MOTION_DOT":"0.00000120","REV_AT_EPOCH":"12157","DECAY_DATE":null,"RCS_SIZE":"LARGE","REF_FRAME":"TEME","ARG_OF_PERICENTER":"61.2419","FILE":"3469840","GP_ID":"204802203","SEMIMAJOR_AXIS":"6925.331","OBJECT_ID":"2020-019C","TIME_SYSTEM":"UTC","INCLINATION":"53.0552","MEAN_ANOMALY":"298.8733"},{"ARG_OF_PERICENTER":"61.6013","FILE":"3469840","GP_ID":"204802448","REV_AT_EPOCH":"12198","MEAN_MOTION_DOT":"0.00002134","DECAY_DATE":null,"REF_FRAME":"TEME","RCS_SIZE":"LARGE","MEAN_ANOMALY":"298.5137","SEMIMAJOR_AXIS":"6925.316","INCLINATION":"53.0545","TIME_SYSTEM":"UTC","OBJECT_ID":"2020-019E","NORAD_CAT_ID":"45364","CLASSIFICATION_TYPE":"U","CENTER_NAME":"EARTH","ELEMENT_SET_NO":"999","EPOCH":"2022-05-28T15:47:42.486432","MEAN_ELEMENT_THEORY":"SGP4","BSTAR":"0.00016209000000","SITE":"AFETR","OBJECT_TYPE":"PAYLOAD","PERIAPSIS":"546.073","APOAPSIS":"548.289","EPHEMERIS_TYPE":"0","TLE_LINE2":"2 45364  53.0545 216.3197 0001600  61.6013 298.5137 15.06410586121981","COUNTRY_CODE":"US","LAUNCH_DATE":"2020-03-18","PERIOD":"95.591","MEAN_MOTION_DDOT":"0.0000000000000","ECCENTRICITY":"0.00016000","OBJECT_NAME":"STARLINK-1313","TLE_LINE1":"1 45364U 20019E   22148.65813063  .00002134  00000-0  16209-3 0  9994","RA_OF_ASC_NODE":"216.3197","MEAN_MOTION":"15.06410586"},{"GP_ID":"204801702","ARG_OF_PERICENTER":"72.0609","FILE":"3469840","RCS_SIZE":"LARGE","REF_FRAME":"TEME","MEAN_MOTION_DOT":"0.00003261","REV_AT_EPOCH":"12181","DECAY_DATE":null,"MEAN_ANOMALY":"288.0547","OBJECT_ID":"2020-019F","INCLINATION":"52.9995","TIME_SYSTEM":"UTC","SEMIMAJOR_AXIS":"6927.836","EPOCH":"2022-05-28T17:18:34.488000","ELEMENT_SET_NO":"999","BSTAR":"0.00024284000000","MEAN_ELEMENT_THEORY":"SGP4","CENTER_NAME":"EARTH","NORAD_CAT_ID":"45365","CLASSIFICATION_TYPE":"U","EPHEMERIS_TYPE":"0","APOAPSIS":"550.768","TLE_LINE2":"2 45365  52.9995 226.0415 0001540  72.0609 288.0547 15.05588720121816","COUNTRY_CODE":"US","SITE":"AFETR","OBJECT_TYPE":"PAYLOAD","PERIAPSIS":"548.634","PERIOD":"95.644","LAUNCH_DATE":"2020-03-18","MEAN_MOTION":"15.05588720","RA_OF_ASC_NODE":"226.0415","TLE_LINE1":"1 45365U 20019F   22148.72123250  .00003261  00000-0  24284-3 0  9999","MEAN_MOTION_DDOT":"0.0000000000000","ECCENTRICITY":"0.00015400","OBJECT_NAME":"STARLINK-1317"},{"RCS_SIZE":"LARGE","REF_FRAME":"TEME","DECAY_DATE":null,"REV_AT_EPOCH":"12157","MEAN_MOTION_DOT":"0.00001905","GP_ID":"204801452","FILE":"3469840","ARG_OF_PERICENTER":"59.2569","OBJECT_ID":"2020-019G","INCLINATION":"53.0553","TIME_SYSTEM":"UTC","SEMIMAJOR_AXIS":"6925.324","MEAN_ANOMALY":"300.8574","TLE_LINE2":"2 45366  53.0553 246.4976 0001560  59.2569 300.8574 15.06407980121576","COUNTRY_CODE":"US","EPHEMERIS_TYPE":"0","APOAPSIS":"548.269","PERIAPSIS":"546.109","OBJECT_TYPE":"PAYLOAD","SITE":"AFETR","BSTAR":"0.00014670000000","MEAN_ELEMENT_THEORY":"SGP4","EPOCH":"2022-05-28T14:45:20.488608","ELEMENT_SET_NO":"999","CENTER_NAME":"EARTH","CLASSIFICATION_TYPE":"U","NORAD_CAT_ID":"45366","MEAN_MOTION":"15.06407980","TLE_LINE1":"1 45366U 20019G   22148.61482047  .00001905  00000-0  14670-3 0  9991","RA_OF_ASC_NODE":"246.4976","ECCENTRICITY":"0.00015600","MEAN_MOTION_DDOT":"0.0000000000000","OBJECT_NAME":"STARLINK-1262","PERIOD":"95.592","LAUNCH_DATE":"2020-03-18"},{"MEAN_ANOMALY":"294.5525","TIME_SYSTEM":"UTC","INCLINATION":"53.0540","OBJECT_ID":"2020-019H","SEMIMAJOR_AXIS":"6925.356","GP_ID":"204802704","FILE":"3469840","ARG_OF_PERICENTER":"65.5618","RCS_SIZE":"LARGE","REF_FRAME":"TEME","DECAY_DATE":null,"REV_AT_EPOCH":"12157","MEAN_MOTION_DOT":"-0.00000427","PERIOD":"95.592","LAUNCH_DATE":"2020-03-18","MEAN_MOTION":"15.06397535","OBJECT_NAME":"STARLINK-1273","MEAN_MOTION_DDOT":"0.0000000000000","ECCENTRICITY":"0.00014720","RA_OF_ASC_NODE":"246.4043","TLE_LINE1":"1 45367U 20019H   22148.63694046 -.00000427  00000-0 -98023-5 0  9994","BSTAR":"-0.00000980230000","MEAN_ELEMENT_THEORY":"SGP4","ELEMENT_SET_NO":"999","EPOCH":"2022-05-28T15:17:11.655744","CLASSIFICATION_TYPE":"U","NORAD_CAT_ID":"45367","CENTER_NAME":"EARTH","TLE_LINE2":"2 45367  53.0540 246.4043 0001472  65.5618 294.5525 15.06397535121574","COUNTRY_CODE":"US","EPHEMERIS_TYPE":"0","APOAPSIS":"548.241","PERIAPSIS":"546.202","OBJECT_TYPE":"PAYLOAD","SITE":"AFETR"},{"TLE_LINE1":"1 45368U 20019J   22148.54110666  .00001819  00000-0  14090-3 0  9990","RA_OF_ASC_NODE":"246.8341","MEAN_MOTION_DDOT":"0.0000000000000","OBJECT_NAME":"STARLINK-1276","ECCENTRICITY":"0.00013520","MEAN_MOTION":"15.06412188","LAUNCH_DATE":"2020-03-18","PERIOD":"95.591","PERIAPSIS":"546.240","OBJECT_TYPE":"PAYLOAD","SITE":"AFETR","COUNTRY_CODE":"US","TLE_LINE2":"2 45368  53.0571 246.8341 0001352  69.1154 290.9980 15.06412188121562","APOAPSIS":"548.113","EPHEMERIS_TYPE":"0","CENTER_NAME":"EARTH","CLASSIFICATION_TYPE":"U","NORAD_CAT_ID":"45368","MEAN_ELEMENT_THEORY":"SGP4","BSTAR":"0.00014090000000","EPOCH":"2022-05-28T12:59:11.615424","ELEMENT_SET_NO":"999","SEMIMAJOR_AXIS":"6925.311","OBJECT_ID":"2020-019J","INCLINATION":"53.0571","TIME_SYSTEM":"UTC","MEAN_ANOMALY":"290.9980","DECAY_DATE":null,"MEAN_MOTION_DOT":"0.00001819","REV_AT_EPOCH":"12156","REF_FRAME":"TEME","RCS_SIZE":"LARGE","FILE":"3469027","ARG_OF_PERICENTER":"69.1154","GP_ID":"204740081"},{"SITE":"AFETR","OBJECT_TYPE":"PAYLOAD","PERIAPSIS":"546.136","EPHEMERIS_TYPE":"0","APOAPSIS":"548.201","COUNTRY_CODE":"US","TLE_LINE2":"2 45369  53.0534 246.8366 0001491  65.3404 294.7740 15.06414606121562","NORAD_CAT_ID":"45369","CLASSIFICATION_TYPE":"U","CENTER_NAME":"EARTH","EPOCH":"2022-05-28T12:57:49.522464","ELEMENT_SET_NO":"999","MEAN_ELEMENT_THEORY":"SGP4","BSTAR":"0.00008568700000","ECCENTRICITY":"0.00014910","MEAN_MOTION_DDOT":"0.0000000000000","OBJECT_NAME":"STARLINK-1277","TLE_LINE1":"1 45369U 20019K   22148.54015651  .00000995  00000-0  85687-4 0  9994","RA_OF_ASC_NODE":"246.8366","MEAN_MOTION":"15.06414606","LAUNCH_DATE":"2020-03-18","PERIOD":"95.591","REV_AT_EPOCH":"12156","MEAN_MOTION_DOT":"0.00000995","DECAY_DATE":null,"RCS_SIZE":"LARGE","REF_FRAME":"TEME","ARG_OF_PERICENTER":"65.3404","FILE":"3469037","GP_ID":"204740097","SEMIMAJOR_AXIS":"6925.304","INCLINATION":"53.0534","TIME_SYSTEM":"UTC","OBJECT_ID":"2020-019K","MEAN_ANOMALY":"294.7740"}];
